CCSDS_OMM_VERS = 2.0
CREATION_DATE  = 
ORIGINATOR     = 

OBJECT_NAME    = STARLINK-36317
OBJECT_ID      = 2026-026R
CENTER_NAME    = EARTH
REF_FRAME      = TEME
TIME_SYSTEM    = UTC
MEAN_ELEMENT_THEORY = SGP/SGP4

EPOCH          = 2026-03-12T04:00:01.999584
MEAN_MOTION    = 15.39246269
ECCENTRICITY   = .0001788
INCLINATION    = 97.2842
RA_OF_ASC_NODE = 125.7689
ARG_OF_PERICENTER = 68.0455
MEAN_ANOMALY   = 61.0910

EPHEMERIS_TYPE = 0
CLASSIFICATION_TYPE = U
NORAD_CAT_ID   = 67736
ELEMENT_SET_NO = 999
REV_AT_EPOCH   = 571
BSTAR          = -.51714E-1
MEAN_MOTION_DOT = -.1811868E-1
MEAN_MOTION_DDOT = 0

CCSDS_OMM_VERS = 2.0
CREATION_DATE  = 
ORIGINATOR     = 

OBJECT_NAME    = STARLINK-36330
OBJECT_ID      = 2026-026S
CENTER_NAME    = EARTH
REF_FRAME      = TEME
TIME_SYSTEM    = UTC
MEAN_ELEMENT_THEORY = SGP/SGP4

EPOCH          = 2026-03-12T04:00:01.999584
MEAN_MOTION    = 15.39604818
ECCENTRICITY   = .0001876
INCLINATION    = 97.2854
RA_OF_ASC_NODE = 125.7810
ARG_OF_PERICENTER = 61.7616
MEAN_ANOMALY   = 95.5571

EPHEMERIS_TYPE = 0
CLASSIFICATION_TYPE = U
NORAD_CAT_ID   = 67737
ELEMENT_SET_NO = 999
REV_AT_EPOCH   = 571
BSTAR          = -.51586E-1
MEAN_MOTION_DOT = -.1827252E-1
MEAN_MOTION_DDOT = 0

CCSDS_OMM_VERS = 2.0
CREATION_DATE  = 
ORIGINATOR     = 

OBJECT_NAME    = STARLINK-36327
OBJECT_ID      = 2026-026T
CENTER_NAME    = EARTH
REF_FRAME      = TEME
TIME_SYSTEM    = UTC
MEAN_ELEMENT_THEORY = SGP/SGP4

EPOCH          = 2026-03-12T04:00:01.999584
MEAN_MOTION    = 15.39543686
ECCENTRICITY   = .0001948
INCLINATION    = 97.2841
RA_OF_ASC_NODE = 125.7876
ARG_OF_PERICENTER = 64.8165
MEAN_ANOMALY   = 107.8368

EPHEMERIS_TYPE = 0
CLASSIFICATION_TYPE = U
NORAD_CAT_ID   = 67738
ELEMENT_SET_NO = 999
REV_AT_EPOCH   = 571
BSTAR          = -.51804E-1
MEAN_MOTION_DOT = -.1830909E-1
MEAN_MOTION_DDOT = 0

CCSDS_OMM_VERS = 2.0
CREATION_DATE  = 
ORIGINATOR     = 

OBJECT_NAME    = STARLINK-36329
OBJECT_ID      = 2026-026U
CENTER_NAME    = EARTH
REF_FRAME      = TEME
TIME_SYSTEM    = UTC
MEAN_ELEMENT_THEORY = SGP/SGP4

EPOCH          = 2026-03-12T04:00:01.999584
MEAN_MOTION    = 15.40597070
ECCENTRICITY   = .0002066
INCLINATION    = 97.2845
RA_OF_ASC_NODE = 125.8240
ARG_OF_PERICENTER = 81.3271
MEAN_ANOMALY   = 175.4539

EPHEMERIS_TYPE = 0
CLASSIFICATION_TYPE = U
NORAD_CAT_ID   = 67739
ELEMENT_SET_NO = 999
REV_AT_EPOCH   = 571
BSTAR          = -.51503E-1
MEAN_MOTION_DOT = -.1879494E-1
MEAN_MOTION_DDOT = 0

CCSDS_OMM_VERS = 2.0
CREATION_DATE  = 
ORIGINATOR     = 

OBJECT_NAME    = STARLINK-36737
OBJECT_ID      = 2026-026V
CENTER_NAME    = EARTH
REF_FRAME      = TEME
TIME_SYSTEM    = UTC
MEAN_ELEMENT_THEORY = SGP/SGP4

EPOCH          = 2026-03-12T04:00:01.999584
MEAN_MOTION    = 15.39704801
ECCENTRICITY   = .0001969
INCLINATION    = 97.2844
RA_OF_ASC_NODE = 125.7934
ARG_OF_PERICENTER = 63.7837
MEAN_ANOMALY   = 123.0503

EPHEMERIS_TYPE = 0
CLASSIFICATION_TYPE = U
NORAD_CAT_ID   = 67740
ELEMENT_SET_NO = 999
REV_AT_EPOCH   = 571
BSTAR          = -.51912E-1
MEAN_MOTION_DOT = -.1843187E-1
MEAN_MOTION_DDOT = 0

CCSDS_OMM_VERS = 2.0
CREATION_DATE  = 
ORIGINATOR     = 

OBJECT_NAME    = STARLINK-36740
OBJECT_ID      = 2026-026W
CENTER_NAME    = EARTH
REF_FRAME      = TEME
TIME_SYSTEM    = UTC
MEAN_ELEMENT_THEORY = SGP/SGP4

EPOCH          = 2026-03-12T03:24:20.719872
MEAN_MOTION    = 15.48384860
ECCENTRICITY   = .0001712
INCLINATION    = 97.2859
RA_OF_ASC_NODE = 125.7411
ARG_OF_PERICENTER = 74.7246
MEAN_ANOMALY   = 285.4194

EPHEMERIS_TYPE = 0
CLASSIFICATION_TYPE = U
NORAD_CAT_ID   = 67741
ELEMENT_SET_NO = 999
REV_AT_EPOCH   = 450
BSTAR          = -.55632E-2
MEAN_MOTION_DOT = -.28394E-2
MEAN_MOTION_DDOT = 0

CCSDS_OMM_VERS = 2.0
CREATION_DATE  = 
ORIGINATOR     = 

OBJECT_NAME    = STARLINK-36693
OBJECT_ID      = 2026-026X
CENTER_NAME    = EARTH
REF_FRAME      = TEME
TIME_SYSTEM    = UTC
MEAN_ELEMENT_THEORY = SGP/SGP4

EPOCH          = 2026-03-12T04:00:01.999584
MEAN_MOTION    = 15.46305940
ECCENTRICITY   = .000193
INCLINATION    = 97.2851
RA_OF_ASC_NODE = 125.7633
ARG_OF_PERICENTER = 47.7845
MEAN_ANOMALY   = 83.3469

EPHEMERIS_TYPE = 0
CLASSIFICATION_TYPE = U
NORAD_CAT_ID   = 67742
ELEMENT_SET_NO = 999
REV_AT_EPOCH   = 585
BSTAR          = -.43221E-1
MEAN_MOTION_DOT = -.1910223E-1
MEAN_MOTION_DDOT = 0

CCSDS_OMM_VERS = 2.0
CREATION_DATE  = 
ORIGINATOR     = 

OBJECT_NAME    = STARLINK-36717
OBJECT_ID      = 2026-026Y
CENTER_NAME    = EARTH
REF_FRAME      = TEME
TIME_SYSTEM    = UTC
MEAN_ELEMENT_THEORY = SGP/SGP4

EPOCH          = 2026-03-12T04:00:01.999584
MEAN_MOTION    = 15.42014139
ECCENTRICITY   = .0001963
INCLINATION    = 97.2847
RA_OF_ASC_NODE = 125.7909
ARG_OF_PERICENTER = 70.8773
MEAN_ANOMALY   = 114.4878

EPHEMERIS_TYPE = 0
CLASSIFICATION_TYPE = U
NORAD_CAT_ID   = 67743
ELEMENT_SET_NO = 999
REV_AT_EPOCH   = 585
BSTAR          = -.48744E-1
MEAN_MOTION_DOT = -.1866343E-1
MEAN_MOTION_DDOT = 0

CCSDS_OMM_VERS = 2.0
CREATION_DATE  = 
ORIGINATOR     = 

OBJECT_NAME    = STARLINK-36692
OBJECT_ID      = 2026-026Z
CENTER_NAME    = EARTH
REF_FRAME      = TEME
TIME_SYSTEM    = UTC
MEAN_ELEMENT_THEORY = SGP/SGP4

EPOCH          = 2026-03-12T04:00:01.999584
MEAN_MOTION    = 15.44009635
ECCENTRICITY   = .000188
INCLINATION    = 97.2852
RA_OF_ASC_NODE = 125.7773
ARG_OF_PERICENTER = 70.2913
MEAN_ANOMALY   = 84.7423

EPHEMERIS_TYPE = 0
CLASSIFICATION_TYPE = U
NORAD_CAT_ID   = 67744
ELEMENT_SET_NO = 999
REV_AT_EPOCH   = 571
BSTAR          = -.45559E-1
MEAN_MOTION_DOT = -.1865977E-1
MEAN_MOTION_DDOT = 0

CCSDS_OMM_VERS = 2.0
CREATION_DATE  = 
ORIGINATOR     = 

OBJECT_NAME    = 2026-027A
OBJECT_ID      = 2026-027A
CENTER_NAME    = EARTH
REF_FRAME      = TEME
TIME_SYSTEM    = UTC
MEAN_ELEMENT_THEORY = SGP/SGP4

EPOCH          = 2026-03-12T05:00:38.223936
MEAN_MOTION    = 15.17765784
ECCENTRICITY   = .0010365
INCLINATION    = 97.4902
RA_OF_ASC_NODE = 200.1954
ARG_OF_PERICENTER = 185.2334
MEAN_ANOMALY   = 174.8793

EPHEMERIS_TYPE = 0
CLASSIFICATION_TYPE = U
NORAD_CAT_ID   = 67746
ELEMENT_SET_NO = 999
REV_AT_EPOCH   = 424
BSTAR          = .47389E-3
MEAN_MOTION_DOT = .9521E-4
MEAN_MOTION_DDOT = 0

CCSDS_OMM_VERS = 2.0
CREATION_DATE  = 
ORIGINATOR     = 

OBJECT_NAME    = 2026-027B
OBJECT_ID      = 2026-027B
CENTER_NAME    = EARTH
REF_FRAME      = TEME
TIME_SYSTEM    = UTC
MEAN_ELEMENT_THEORY = SGP/SGP4

EPOCH          = 2026-03-12T04:57:57.964896
MEAN_MOTION    = 15.17865660
ECCENTRICITY   = .0010455
INCLINATION    = 97.4897
RA_OF_ASC_NODE = 200.1956
ARG_OF_PERICENTER = 187.5863
MEAN_ANOMALY   = 172.5215

EPHEMERIS_TYPE = 0
CLASSIFICATION_TYPE = U
NORAD_CAT_ID   = 67747
ELEMENT_SET_NO = 999
REV_AT_EPOCH   = 424
BSTAR          = .46874E-3
MEAN_MOTION_DOT = .9444E-4
MEAN_MOTION_DDOT = 0

CCSDS_OMM_VERS = 2.0
CREATION_DATE  = 
ORIGINATOR     = 

OBJECT_NAME    = 2026-027C
OBJECT_ID      = 2026-027C
CENTER_NAME    = EARTH
REF_FRAME      = TEME
TIME_SYSTEM    = UTC
MEAN_ELEMENT_THEORY = SGP/SGP4

EPOCH          = 2026-03-12T04:55:55.611264
MEAN_MOTION    = 15.17853962
ECCENTRICITY   = .0010843
INCLINATION    = 97.4909
RA_OF_ASC_NODE = 200.2020
ARG_OF_PERICENTER = 189.9196
MEAN_ANOMALY   = 170.1826

EPHEMERIS_TYPE = 0
CLASSIFICATION_TYPE = U
NORAD_CAT_ID   = 67748
ELEMENT_SET_NO = 999
REV_AT_EPOCH   = 424
BSTAR          = .32423E-3
MEAN_MOTION_DOT = .6507E-4
MEAN_MOTION_DDOT = 0

CCSDS_OMM_VERS = 2.0
CREATION_DATE  = 
ORIGINATOR     = 

OBJECT_NAME    = 2026-027D
OBJECT_ID      = 2026-027D
CENTER_NAME    = EARTH
REF_FRAME      = TEME
TIME_SYSTEM    = UTC
MEAN_ELEMENT_THEORY = SGP/SGP4

EPOCH          = 2026-03-12T04:49:27.238080
MEAN_MOTION    = 15.18231295
ECCENTRICITY   = .0010418
INCLINATION    = 97.4903
RA_OF_ASC_NODE = 200.2063
ARG_OF_PERICENTER = 195.1959
MEAN_ANOMALY   = 164.8963

EPHEMERIS_TYPE = 0
CLASSIFICATION_TYPE = U
NORAD_CAT_ID   = 67749
ELEMENT_SET_NO = 999
REV_AT_EPOCH   = 419
BSTAR          = .5252E-3
MEAN_MOTION_DOT = .10703E-3
MEAN_MOTION_DDOT = 0

CCSDS_OMM_VERS = 2.0
CREATION_DATE  = 
ORIGINATOR     = 

OBJECT_NAME    = 2026-027E
OBJECT_ID      = 2026-027E
CENTER_NAME    = EARTH
REF_FRAME      = TEME
TIME_SYSTEM    = UTC
MEAN_ELEMENT_THEORY = SGP/SGP4

EPOCH          = 2026-03-12T04:49:53.009472
MEAN_MOTION    = 15.18173901
ECCENTRICITY   = .0009689
INCLINATION    = 97.4913
RA_OF_ASC_NODE = 200.2098
ARG_OF_PERICENTER = 195.7539
MEAN_ANOMALY   = 164.3395

EPHEMERIS_TYPE = 0
CLASSIFICATION_TYPE = U
NORAD_CAT_ID   = 67750
ELEMENT_SET_NO = 999
REV_AT_EPOCH   = 424
BSTAR          = .45567E-3
MEAN_MOTION_DOT = .9258E-4
MEAN_MOTION_DDOT = 0

CCSDS_OMM_VERS = 2.0
CREATION_DATE  = 
ORIGINATOR     = 

OBJECT_NAME    = 2026-027F
OBJECT_ID      = 2026-027F
CENTER_NAME    = EARTH
REF_FRAME      = TEME
TIME_SYSTEM    = UTC
MEAN_ELEMENT_THEORY = SGP/SGP4

EPOCH          = 2026-03-09T19:49:10.682112
MEAN_MOTION    = 15.18180546
ECCENTRICITY   = .00096725
INCLINATION    = 97.4922
RA_OF_ASC_NODE = 197.8630
ARG_OF_PERICENTER = 203.5802
MEAN_ANOMALY   = 156.4990

EPHEMERIS_TYPE = 0
CLASSIFICATION_TYPE = U
NORAD_CAT_ID   = 67751
ELEMENT_SET_NO = 999
REV_AT_EPOCH   = 388
BSTAR          = .22390931E-3
MEAN_MOTION_DOT = .4513E-4
MEAN_MOTION_DDOT = 0

